{"type": "FeatureCollection", "features": [ {"type": "Feature", "properties": {"norad_id": 39019, "name": "PLEIADES 1B", "group": "resource", "lat": -64.54288880344127, "lon": -124.2181895529292, "alt_km": 705.7859152540341, "timestamp": "2025-12-26T22:28:05.436148+00:00", "meta": {"OBJECT_NAME": "PLEIADES 1B", "OBJECT_ID": "2012-068A", "EPOCH": "2025-12-26T18:03:07.219296", "MEAN_MOTION": 14.58566278, "ECCENTRICITY": 0.0001153, "INCLINATION": 98.1773, "RA_OF_ASC_NODE": 73.1815, "ARG_OF_PERICENTER": 85.4946, "MEAN_ANOMALY": 274.6385, "EPHEMERIS_TYPE": 0, "CLASSIFICATION_TYPE": "U", "NORAD_CAT_ID": 39019, "ELEMENT_SET_NO": 999, "REV_AT_EPOCH": 69571, "BSTAR": 0.00014114, "MEAN_MOTION_DOT": 6.11e-06, "MEAN_MOTION_DDOT": 0}, "tle": {"line1": "1 39019U 12068A   25360.75216689  .00000611  00000+0  14114-3 0  9990", "line2": "2 39019  98.1773  73.1815 0001153  85.4946 274.6385 14.58566278695715"}}, "geometry": {"type": "Point", "coordinates": [-124.2181895529292, -64.54288880344127]}}, {"type": "Feature", "properties": {"norad_id": 39030, "name": "GOKTURK 2", "group": "resource", "lat": -54.291144120544324, "lon": 11.058623581560024, "alt_km": 651.8557164569529, "timestamp": "2025-12-26T22:28:05.436162+00:00", "meta": {"OBJECT_NAME": "GOKTURK 2", "OBJECT_ID": "2012-073A", "EPOCH": "2025-12-26T18:09:03.583008", "MEAN_MOTION": 14.75311372, "ECCENTRICITY": 0.0001496, "INCLINATION": 97.6886, "RA_OF_ASC_NODE": 201.7203, "ARG_OF_PERICENTER": 106.6518, "MEAN_ANOMALY": 253.4856, "EPHEMERIS_TYPE": 0, "CLASSIFICATION_TYPE": "U", "NORAD_CAT_ID": 39030, "ELEMENT_SET_NO": 999, "REV_AT_EPOCH": 69908, "BSTAR": 0.00014617, "MEAN_MOTION_DOT": 9.43e-06, "MEAN_MOTION_DDOT": 0}, "tle": {"line1": "1 39030U 12073A   25360.75629147  .00000943  00000+0  14617-3 0  9992", "line2": "2 39030  97.6886 201.7203 0001496 106.6518 253.4856 14.75311372699082"}}, "geometry": {"type": "Point", "coordinates": [11.058623581560024, -54.291144120544324]}}, {"type": "Feature", "properties": {"norad_id": 39084, "name": "LANDSAT 8", "group": "resource", "lat": -17.904538250925487, "lon": 71.47089753362738, "alt_km": 707.7577729176801, "timestamp": "2025-12-26T22:28:05.436172+00:00", "meta": {"OBJECT_NAME": "LANDSAT 8", "OBJECT_ID": "2013-008A", "EPOCH": "2025-12-26T17:36:24.640128", "MEAN_MOTION": 14.5711645, "ECCENTRICITY": 0.0001052, "INCLINATION": 98.2054, "RA_OF_ASC_NODE": 68.5994, "ARG_OF_PERICENTER": 93.9343, "MEAN_ANOMALY": 266.1976, "EPHEMERIS_TYPE": 0, "CLASSIFICATION_TYPE": "U", "NORAD_CAT_ID": 39084, "ELEMENT_SET_NO": 999, "REV_AT_EPOCH": 67278, "BSTAR": 0.00010817, "MEAN_MOTION_DOT": 4.42e-06, "MEAN_MOTION_DDOT": 0}, "tle": {"line1": "1 39084U 13008A   25360.73361852  .00000442  00000+0  10817-3 0  9996", "line2": "2 39084  98.2054  68.5994 0001052  93.9343 266.1976 14.57116450672785"}}, "geometry": {"type": "Point", "coordinates": [71.47089753362738, -17.904538250925487]}}, {"type": "Feature", "properties": {"norad_id": 39086, "name": "SARAL", "group": "resource", "lat": 14.539093977322182, "lon": 6.917291567304544, "alt_km": 783.1350205689114, "timestamp": "2025-12-26T22:28:05.436184+00:00", "meta": {"OBJECT_NAME": "SARAL", "OBJECT_ID": "2013-009A", "EPOCH": "2025-12-26T18:20:52.482048", "MEAN_MOTION": 14.32761917, "ECCENTRICITY": 0.0002953, "INCLINATION": 98.5504, "RA_OF_ASC_NODE": 184.5118, "ARG_OF_PERICENTER": 82.2945, "MEAN_ANOMALY": 277.8574, "EPHEMERIS_TYPE": 0, "CLASSIFICATION_TYPE": "U", "NORAD_CAT_ID": 39086, "ELEMENT_SET_NO": 999, "REV_AT_EPOCH": 67091, "BSTAR": 7.034e-05, "MEAN_MOTION_DOT": 1.48e-06, "MEAN_MOTION_DDOT": 0}, "tle": {"line1": "1 39086U 13009A   25360.76449632  .00000148  00000+0  70340-4 0  9996", "line2": "2 39086  98.5504 184.5118 0002953  82.2945 277.8574 14.32761917670910"}}, "geometry": {"type": "Point", "coordinates": [6.917291567304544, 14.539093977322182]}}, {"type": "Feature", "properties": {"norad_id": 39150, "name": "GAOFEN-1", "group": "resource", "lat": 14.782505130698754, "lon": 69.23480284181964, "alt_km": 640.0913904479057, "timestamp": "2025-12-26T22:28:05.436195+00:00", "meta": {"OBJECT_NAME": "GAOFEN-1", "OBJECT_ID": "2013-018A", "EPOCH": "2025-12-26T17:31:17.076864", "MEAN_MOTION": 14.76504598, "ECCENTRICITY": 0.0018552, "INCLINATION": 97.9305, "RA_OF_ASC_NODE": 71.1405, "ARG_OF_PERICENTER": 100.5714, "MEAN_ANOMALY": 259.7587, "EPHEMERIS_TYPE": 0, "CLASSIFICATION_TYPE": "U", "NORAD_CAT_ID": 39150, "ELEMENT_SET_NO": 999, "REV_AT_EPOCH": 68279, "BSTAR": 0.00013719, "MEAN_MOTION_DOT": 9.07e-06, "MEAN_MOTION_DDOT": 0}, "tle": {"line1": "1 39150U 13018A   25360.73005876  .00000907  00000+0  13719-3 0  9992", "line2": "2 39150  97.9305  71.1405 0018552 100.5714 259.7587 14.76504598682794"}}, "geometry": {"type": "Point", "coordinates": [69.23480284181964, 14.782505130698754]}}, {"type": "Feature", "properties": {"norad_id": 39160, "name": "VNREDSAT 1", "group": "resource", "lat": -26.483533384214155, "lon": -128.27269794314012, "alt_km": 683.4497312267786, "timestamp": "2025-12-26T22:28:05.436205+00:00", "meta": {"OBJECT_NAME": "VNREDSAT 1", "OBJECT_ID": "2013-021B", "EPOCH": "2025-12-26T18:14:57.523200", "MEAN_MOTION": 14.64943685, "ECCENTRICITY": 0.0001153, "INCLINATION": 97.9349, "RA_OF_ASC_NODE": 55.5424, "ARG_OF_PERICENTER": 81.2881, "MEAN_ANOMALY": 278.8453, "EPHEMERIS_TYPE": 0, "CLASSIFICATION_TYPE": "U", "NORAD_CAT_ID": 39160, "ELEMENT_SET_NO": 999, "REV_AT_EPOCH": 67504, "BSTAR": 0.00015963, "MEAN_MOTION_DOT": 8.09e-06, "MEAN_MOTION_DDOT": 0}, "tle": {"line1": "1 39160U 13021B   25360.76038800  .00000809  00000+0  15963-3 0  9997", "line2": "2 39160  97.9349  55.5424 0001153  81.2881 278.8453 14.64943685675044"}}, "geometry": {"type": "Point", "coordinates": [-128.27269794314012, -26.483533384214155]}}, {"type": "Feature", "properties": {"norad_id": 39227, "name": "ARIRANG-5 (KOMPSAT-5)", "group": "resource", "lat": 34.83973846635768, "lon": 10.382589157797597, "alt_km": 551.6133372858285, "timestamp": "2025-12-26T22:28:05.436215+00:00", "meta": {"OBJECT_NAME": "ARIRANG-5 (KOMPSAT-5)", "OBJECT_ID": "2013-042A", "EPOCH": "2025-12-26T18:38:05.474400", "MEAN_MOTION": 15.04491547, "ECCENTRICITY": 0.0002952, "INCLINATION": 97.6166, "RA_OF_ASC_NODE": 184.8808, "ARG_OF_PERICENTER": 32.3974, "MEAN_ANOMALY": 327.7433, "EPHEMERIS_TYPE": 0, "CLASSIFICATION_TYPE": "U", "NORAD_CAT_ID": 39227, "ELEMENT_SET_NO": 999, "REV_AT_EPOCH": 67793, "BSTAR": 0.00016381, "MEAN_MOTION_DOT": 2.232e-05, "MEAN_MOTION_DDOT": 0}, "tle": {"line1": "1 39227U 13042A   25360.77645225  .00002232  00000+0  16381-3 0  9997", "line2": "2 39227  97.6166 184.8808 0002952  32.3974 327.7433 15.04491547677934"}}, "geometry": {"type": "Point", "coordinates": [10.382589157797597, 34.83973846635768]}}, {"type": "Feature", "properties": {"norad_id": 39418, "name": "SKYSAT-A", "group": "resource", "lat": 18.02815196374874, "lon": -126.86029091895698, "alt_km": 517.7368776523035, "timestamp": "2025-12-26T22:28:05.436226+00:00", "meta": {"OBJECT_NAME": "SKYSAT-A", "OBJECT_ID": "2013-066C", "EPOCH": "2025-12-26T16:59:19.383072", "MEAN_MOTION": 15.11703125, "ECCENTRICITY": 0.0021778, "INCLINATION": 97.4086, "RA_OF_ASC_NODE": 50.4912, "ARG_OF_PERICENTER": 186.7849, "MEAN_ANOMALY": 173.309, "EPHEMERIS_TYPE": 0, "CLASSIFICATION_TYPE": "U", "NORAD_CAT_ID": 39418, "ELEMENT_SET_NO": 999, "REV_AT_EPOCH": 66241, "BSTAR": 0.0002293, "MEAN_MOTION_DOT": 3.862e-05, "MEAN_MOTION_DDOT": 0}, "tle": {"line1": "1 39418U 13066C   25360.70786323  .00003862  00000+0  22930-3 0  9990", "line2": "2 39418  97.4086  50.4912 0021778 186.7849 173.3090 15.11703125662418"}}, "geometry": {"type": "Point", "coordinates": [-126.86029091895698, 18.02815196374874]}}, {"type": "Feature", "properties": {"norad_id": 39419, "name": "DUBAISAT-2", "group": "resource", "lat": 40.50851119212679, "lon": 177.32312310787788, "alt_km": 541.6813853641279, "timestamp": "2025-12-26T22:28:05.436237+00:00", "meta": {"OBJECT_NAME": "DUBAISAT-2", "OBJECT_ID": "2013-066D", "EPOCH": "2025-12-26T18:40:09.135264", "MEAN_MOTION": 15.0849041, "ECCENTRICITY": 0.0009706, "INCLINATION": 97.4471, "RA_OF_ASC_NODE": 350.7534, "ARG_OF_PERICENTER": 266.1212, "MEAN_ANOMALY": 93.8907, "EPHEMERIS_TYPE": 0, "CLASSIFICATION_TYPE": "U", "NORAD_CAT_ID": 39419, "ELEMENT_SET_NO": 999, "REV_AT_EPOCH": 66038, "BSTAR": 0.0002797, "MEAN_MOTION_DOT": 4.303e-05, "MEAN_MOTION_DDOT": 0}, "tle": {"line1": "1 39419U 13066D   25360.77788351  .00004303  00000+0  27970-3 0  9991", "line2": "2 39419  97.4471 350.7534 0009706 266.1212  93.8907 15.08490410660380"}}, "geometry": {"type": "Point", "coordinates": [177.32312310787788, 40.50851119212679]}}, {"type": "Feature", "properties": {"norad_id": 39574, "name": "GPM-CORE", "group": "resource", "lat": 4.515305088685253, "lon": 167.25362216088178, "alt_km": 436.19551781381233, "timestamp": "2025-12-26T22:28:05.436247+00:00", "meta": {"OBJECT_NAME": "GPM-CORE", "OBJECT_ID": "2014-009C", "EPOCH": "2025-12-26T17:47:06.598176", "MEAN_MOTION": 15.44687382, "ECCENTRICITY": 0.000902, "INCLINATION": 64.9729, "RA_OF_ASC_NODE": 165.7924, "ARG_OF_PERICENTER": 251.6671, "MEAN_ANOMALY": 108.3489, "EPHEMERIS_TYPE": 0, "CLASSIFICATION_TYPE": "U", "NORAD_CAT_ID": 39574, "ELEMENT_SET_NO": 999, "REV_AT_EPOCH": 67117, "BSTAR": 0.00020438, "MEAN_MOTION_DOT": 9.357e-05, "MEAN_MOTION_DDOT": 0}, "tle": {"line1": "1 39574U 14009C   25360.74104859  .00009357  00000+0  20438-3 0  9999", "line2": "2 39574  64.9729 165.7924 0009020 251.6671 108.3489 15.44687382671173"}}, "geometry": {"type": "Point", "coordinates": [167.25362216088178, 4.515305088685253]}}]}